OBJECT_NAME,OBJECT_ID,EPOCH,MEAN_MOTION,ECCENTRICITY,INCLINATION,RA_OF_ASC_NODE,ARG_OF_PERICENTER,MEAN_ANOMALY,EPHEMERIS_TYPE,CLASSIFICATION_TYPE,NORAD_CAT_ID,ELEMENT_SET_NO,REV_AT_EPOCH,BSTAR,MEAN_MOTION_DOT,MEAN_MOTION_DDOT
STARLINK-5877,2023-058AP,2026-07-02T06:30:44.756640,15.05598546,.0001354,97.2849,182.5558,118.2868,241.8497,0,U,56354,999,17543,.82842551E-3,.119E-3,0
STARLINK-5533,2023-058AQ,2026-07-02T06:00:02.999808,15.63994614,.00012186,97.5231,184.8263,91.2023,233.7338,0,U,56355,999,586,.44764079E-2,.444614E-2,0
STARLINK-5535,2023-058AR,2026-07-02T05:58:49.800000,15.05662548,.00024583,97.2838,182.5854,84.7219,275.4289,0,U,56356,999,17543,-.15098403E-3,-.2235E-4,0
STARLINK-5538,2023-058AS,2026-07-02T06:46:41.337696,15.05654622,.00016758,97.2843,182.6937,72.4257,287.7154,0,U,56357,999,17544,.12776517E-4,.128E-5,0
STARLINK-5482,2023-058AT,2026-07-01T23:22:08.500800,15.05637712,.00019752,97.2878,181.2819,96.3497,263.7955,0,U,56358,999,17532,-.71060079E-4,-.1081E-4,0
STARLINK-5551,2023-058AU,2026-07-01T23:02:13.114464,15.05643200,.00013273,97.2920,181.1497,79.7635,280.3742,0,U,56359,999,17531,-.11362409E-3,-.1695E-4,0
STARLINK-5549,2023-058AV,2026-07-02T05:42:52.958016,15.05658604,.0002581,97.2870,182.6002,96.7199,263.4322,0,U,56360,999,17543,-.85295737E-4,-.1287E-4,0
STARLINK-5550,2023-058AW,2026-07-02T06:00:52.589952,15.05649610,.00019056,97.2889,181.5189,91.4595,268.6851,0,U,56361,999,17536,.10616184E-3,.1476E-4,0
STARLINK-5972,2023-058AX,2026-07-02T05:50:51.291744,15.05654471,.00021026,97.2921,182.5948,94.9408,265.2060,0,U,56362,999,17543,-.1157718E-4,-.223E-5,0
STARLINK-6156,2023-061A,2026-07-01T23:28:10.165152,15.27595092,.00035691,43.0045,272.8861,273.5722,86.4721,0,U,56374,999,17532,.33736019E-4,.666E-5,0
STARLINK-6158,2023-061B,2026-07-01T16:04:57.251712,15.27572868,.00012892,43.0029,274.0172,271.8343,88.2361,0,U,56375,999,17418,-.36567384E-4,-.1268E-4,0
STARLINK-6188,2023-061C,2026-07-01T15:50:08.316672,15.27579729,.0001794,43.0031,273.9409,271.6728,88.3918,0,U,56376,999,17418,.58401416E-4,.1345E-4,0
STARLINK-6189,2023-061D,2026-07-01T15:46:39.147456,15.27579446,.00021079,43.0027,274.7778,271.7710,88.2900,0,U,56377,999,17417,.5848411E-4,.1347E-4,0
STARLINK-6191,2023-061E,2026-07-01T15:59:23.586144,15.27578668,.00012166,43.0002,273.9863,274.9966,85.0746,0,U,56378,999,17418,.41916354E-4,.892E-5,0
STARLINK-6157,2023-061F,2026-07-01T22:25:16.075776,15.27577792,.00012312,43.0022,272.5622,271.4709,88.6002,0,U,56379,999,17532,.44898117E-4,.974E-5,0
STARLINK-6159,2023-061H,2026-07-01T23:15:13.978656,15.27575140,.00015567,43.0027,272.8187,290.0284,70.0400,0,U,56381,999,17422,.31846656E-4,.614E-5,0
STARLINK-6160,2023-061J,2026-07-01T23:07:50.174688,15.27573334,.00013749,43.0027,272.7783,282.8343,77.2355,0,U,56382,999,17422,.30507089E-4,.577E-5,0
STARLINK-6166,2023-061K,2026-07-01T23:02:16.755360,15.27581573,.00009252,43.0011,272.7514,279.1473,80.9274,0,U,56383,999,17422,.3654524E-4,.744E-5,0
STARLINK-6153,2023-061L,2026-07-01T22:58:34.484448,15.27579360,.00014811,43.0031,272.7285,285.8154,74.2534,0,U,56384,999,17422,.28898229E-4,.533E-5,0
STARLINK-6173,2023-061M,2026-07-01T22:49:19.245216,15.27573720,.00010447,43.0020,272.6805,271.0616,89.0116,0,U,56385,999,17422,.2248816E-5,-.2E-5,0
STARLINK-5836,2023-061N,2026-07-01T23:09:40.846176,15.27578107,.00011599,43.0018,272.7871,286.5374,73.5350,0,U,56386,999,17422,.22332183E-4,.352E-5,0
STARLINK-6178,2023-061P,2026-07-01T16:01:14.617056,15.27581220,.0001351,43.0026,273.9975,276.8682,83.2016,0,U,56387,999,17418,.3997971E-4,.838E-5,0
STARLINK-6176,2023-061Q,2026-07-01T23:24:27.956448,15.27582312,.00027198,43.0063,272.8459,270.4373,89.6167,0,U,56388,999,17422,.11616773E-4,.57E-6,0
STARLINK-6145,2023-061R,2026-07-01T23:04:07.660128,15.27578936,.00011071,43.0031,272.7539,296.4943,63.5795,0,U,56389,999,17422,.25935879E-4,.452E-5,0
STARLINK-6298,2023-061T,2026-07-01T14:21:32.032224,15.27581477,.00012776,43.0033,274.3321,273.9070,86.1635,0,U,56391,999,17417,.3327065E-4,.654E-5,0
STARLINK-6301,2023-061U,2026-07-01T15:57:46.057824,15.27580623,.00012351,43.0017,263.5498,273.8574,86.2136,0,U,56392,999,17430,.19465248E-4,.274E-5,0
STARLINK-6303,2023-061V,2026-07-01T22:43:46.188768,15.27580952,.00013328,43.0017,272.6492,270.1744,89.8955,0,U,56393,999,17422,.53693495E-4,.1216E-4,0
STARLINK-6305,2023-061W,2026-07-01T16:36:25.521984,15.27579549,.00012665,42.9977,262.8975,303.1912,56.8819,0,U,56394,999,17431,.49975461E-4,.1113E-4,0
STARLINK-6273,2023-061X,2026-07-01T14:49:32.393856,15.27572031,.00022788,43.0034,264.0464,278.8077,81.2517,0,U,56395,999,17500,.24452712E-4,.41E-5,0
STARLINK-6302,2023-061Y,2026-06-30T17:20:43.903968,15.27576126,.00014119,43.0015,268.5128,269.7210,90.3480,0,U,56396,999,16929,.3688688E-5,-.161E-5,0
