STARLINK-5877           
1 56354U 23058AP  26183.27135135  .00011900  00000+0  82843-3 0  9996
2 56354  97.2849 182.5558 0001354 118.2868 241.8497 15.05598546175438
STARLINK-5533           
1 56355U 23058AQ  26183.25003472  .00444614  00000+0  44764-2 0  9994
2 56355  97.5231 184.8263 0001218  91.2023 233.7338 15.63994614  5860
STARLINK-5535           
1 56356U 23058AR  26183.24918750 -.00002235  00000+0 -15098-3 0  9998
2 56356  97.2838 182.5854 0002458  84.7219 275.4289 15.05662548175436
STARLINK-5538           
1 56357U 23058AS  26183.28242289  .00000128  00000+0  12777-4 0  9999
2 56357  97.2843 182.6937 0001675  72.4257 287.7154 15.05654622175444
STARLINK-5482           
1 56358U 23058AT  26182.97370950 -.00001081  00000+0 -71060-4 0  9993
2 56358  97.2878 181.2819 0001975  96.3497 263.7955 15.05637712175322
STARLINK-5551           
1 56359U 23058AU  26182.95987401 -.00001695  00000+0 -11362-3 0  9996
2 56359  97.2920 181.1497 0001327  79.7635 280.3742 15.05643200175319
STARLINK-5549           
1 56360U 23058AV  26183.23811294 -.00001287  00000+0 -85296-4 0  9991
2 56360  97.2870 182.6002 0002581  96.7199 263.4322 15.05658604175433
STARLINK-5550           
1 56361U 23058AW  26183.25060868  .00001476  00000+0  10616-3 0  9998
2 56361  97.2889 181.5189 0001905  91.4595 268.6851 15.05649610175362
STARLINK-5972           
1 56362U 23058AX  26183.24364921 -.00000223  00000+0 -11577-4 0  9994
2 56362  97.2921 182.5948 0002102  94.9408 265.2060 15.05654471175439
STARLINK-6156           
1 56374U 23061A   26182.97789543  .00000666  00000+0  33736-4 0  9991
2 56374  43.0045 272.8861 0003569 273.5722  86.4721 15.27595092175329
STARLINK-6158           
1 56375U 23061B   26182.67010708 -.00001268  00000+0 -36567-4 0  9995
2 56375  43.0029 274.0172 0001289 271.8343  88.2361 15.27572868174187
STARLINK-6188           
1 56376U 23061C   26182.65981848  .00001345  00000+0  58401-4 0  9991
2 56376  43.0031 273.9409 0001794 271.6728  88.3918 15.27579729174180
STARLINK-6189           
1 56377U 23061D   26182.65739754  .00001347  00000+0  58484-4 0  9992
2 56377  43.0027 274.7778 0002107 271.7710  88.2900 15.27579446174170
STARLINK-6191           
1 56378U 23061E   26182.66624521  .00000892  00000+0  41916-4 0  9995
2 56378  43.0002 273.9863 0001216 274.9966  85.0746 15.27578668174187
STARLINK-6157           
1 56379U 23061F   26182.93421384  .00000974  00000+0  44898-4 0  9991
2 56379  43.0022 272.5622 0001231 271.4709  88.6002 15.27577792175320
STARLINK-6159           
1 56381U 23061H   26182.96891179  .00000614  00000+0  31847-4 0  9991
2 56381  43.0027 272.8187 0001556 290.0284  70.0400 15.27575140174222
STARLINK-6160           
1 56382U 23061J   26182.96377517  .00000577  00000+0  30507-4 0  9997
2 56382  43.0027 272.7783 0001374 282.8343  77.2355 15.27573334174228
STARLINK-6166           
1 56383U 23061K   26182.95991615  .00000744  00000+0  36545-4 0  9992
2 56383  43.0011 272.7514 0000925 279.1473  80.9274 15.27581573174223
STARLINK-6153           
1 56384U 23061L   26182.95734357  .00000533  00000+0  28898-4 0  9999
2 56384  43.0031 272.7285 0001481 285.8154  74.2534 15.27579360174225
STARLINK-6173           
1 56385U 23061M   26182.95091719 -.00000200  00000+0  22488-5 0  9990
2 56385  43.0020 272.6805 0001044 271.0616  89.0116 15.27573720174220
STARLINK-5836           
1 56386U 23061N   26182.96505609  .00000352  00000+0  22332-4 0  9994
2 56386  43.0018 272.7871 0001159 286.5374  73.5350 15.27578107174223
STARLINK-6178           
1 56387U 23061P   26182.66753029  .00000838  00000+0  39980-4 0  9999
2 56387  43.0026 273.9975 0001351 276.8682  83.2016 15.27581220174181
STARLINK-6176           
1 56388U 23061Q   26182.97532357  .00000057  00000+0  11617-4 0  9993
2 56388  43.0063 272.8459 0002719 270.4373  89.6167 15.27582312174229
STARLINK-6145           
1 56389U 23061R   26182.96119977  .00000452  00000+0  25936-4 0  9990
2 56389  43.0031 272.7539 0001107 296.4943  63.5795 15.27578936174229
STARLINK-6298           
1 56391U 23061T   26182.59828741  .00000654  00000+0  33271-4 0  9993
2 56391  43.0033 274.3321 0001277 273.9070  86.1635 15.27581477174172
STARLINK-6301           
1 56392U 23061U   26182.66511641  .00000274  00000+0  19465-4 0  9997
2 56392  43.0017 263.5498 0001235 273.8574  86.2136 15.27580623174306
STARLINK-6303           
1 56393U 23061V   26182.94706237  .00001216  00000+0  53693-4 0  9994
2 56393  43.0017 272.6492 0001332 270.1744  89.8955 15.27580952174223
STARLINK-6305           
1 56394U 23061W   26182.69196206  .00001113  00000+0  49975-4 0  9990
2 56394  42.9977 262.8975 0001266 303.1912  56.8819 15.27579549174317
STARLINK-6273           
1 56395U 23061X   26182.61773604  .00000410  00000+0  24453-4 0  9999
2 56395  43.0034 264.0464 0002278 278.8077  81.2517 15.27572031175008
STARLINK-6302           
1 56396U 23061Y   26181.72273037 -.00000161  00000+0  36887-5 0  9995
2 56396  43.0015 268.5128 0001411 269.7210  90.3480 15.27576126169293
